{
    "links": {
        "self": "http://www.neowsapp.com/rest/v1/neo/3827307?api_key=iIulBulltgU6a56xZRHN4H3l9WmuAYTsLGpBGhQ2"
    },
    "id": "3827307",
    "neo_reference_id": "3827307",
    "name": "(2018 RP1)",
    "designation": "2018 RP1",
    "nasa_jpl_url": "http://ssd.jpl.nasa.gov/sbdb.cgi?sstr=3827307",
    "absolute_magnitude_h": 24.3,
    "estimated_diameter": {
        "kilometers": {
            "estimated_diameter_min": 0.0366906138,
            "estimated_diameter_max": 0.0820427065
        },
        "meters": {
            "estimated_diameter_min": 36.6906137531,
            "estimated_diameter_max": 82.0427064882
        },
        "miles": {
            "estimated_diameter_min": 0.0227984834,
            "estimated_diameter_max": 0.0509789586
        },
        "feet": {
            "estimated_diameter_min": 120.3760332259,
            "estimated_diameter_max": 269.1689931548
        }
    },
    "is_potentially_hazardous_asteroid": false,
    "close_approach_data": [
        {
            "close_approach_date": "2018-09-10",
            "close_approach_date_full": "2018-Sep-10 17:41",
            "epoch_date_close_approach": 1536601260000,
            "relative_velocity": {
                "kilometers_per_second": "9.3197795942",
                "kilometers_per_hour": "33551.2065391218",
                "miles_per_hour": "20847.4149742671"
            },
            "miss_distance": {
                "astronomical": "0.059853584",
                "lunar": "23.283044176",
                "kilometers": "8953968.67826608",
                "miles": "5563738.142708704"
            },
            "orbiting_body": "Earth"
        },
        {
            "close_approach_date": "2019-01-03",
            "close_approach_date_full": "2019-Jan-03 06:32",
            "epoch_date_close_approach": 1546497120000,
            "relative_velocity": {
                "kilometers_per_second": "3.7721651543",
                "kilometers_per_hour": "13579.7945553788",
                "miles_per_hour": "8437.9562335908"
            },
            "miss_distance": {
                "astronomical": "0.3333116502",
                "lunar": "129.6582319278",
                "kilometers": "49862712.916105074",
                "miles": "30983253.0935310612"
            },
            "orbiting_body": "Earth"
        }
    ],
    "orbital_data": {
        "orbit_id": "3",
        "orbit_determination_date": "2018-09-19 07:00:21",
        "first_observation_date": "2018-09-07",
        "last_observation_date": "2018-09-15",
        "data_arc_in_days": 8,
        "observations_used": 24,
        "orbit_uncertainty": "8",
        "minimum_orbit_intersection": ".0396567",
        "jupiter_tisserand_invariant": "4.574",
        "epoch_osculation": "2458376.5",
        "eccentricity": ".3382854019929037",
        "semi_major_axis": "1.447266150898872",
        "inclination": "9.465909156932641",
        "ascending_node_longitude": "161.9033788759595",
        "orbital_period": "635.9471627720558",
        "perihelion_distance": ".9576771392513247",
        "perihelion_argument": "234.5704986984395",
        "aphelion_distance": "1.936855162546419",
        "perihelion_time": "2458412.329571832358",
        "mean_anomaly": "339.717425259947",
        "mean_motion": ".566084764700862",
        "equinox": "J2000",
        "orbit_class": {
            "orbit_class_type": "APO",
            "orbit_class_description": "Near-Earth asteroid orbits which cross the Earth’s orbit similar to that of 1862 Apollo",
            "orbit_class_range": "a (semi-major axis) > 1.0 AU; q (perihelion) < 1.017 AU"
        }
    },
    "is_sentry_object": false
}